STARLINK-37045          
1 68074U 26042F   26079.18690612  .00219384  00000+0  10824-2 0  9999
2 68074  53.1577 142.1262 0001564 102.8454 257.2744 15.80965458  3749
STARLINK-37026          
1 68075U 26042G   26079.16668981 -.00054811  00000+0 -35552-3 0  9992
2 68075  53.1583 142.3034 0001128  85.9296 121.4615 15.75250123  3735
STARLINK-37023          
1 68076U 26042H   26079.16668981  .00007352  00000+0  52114-4 0  9993
2 68076  53.1590 142.2426 0000874  98.6659 138.1838 15.75226744  3733
STARLINK-37036          
1 68077U 26042J   26079.16668981 -.00156146  00000+0 -10297-2 0  9996
2 68077  53.1587 142.2461 0001580  83.4153 151.5419 15.75316311  3739
STARLINK-36973          
1 68078U 26042K   26079.24637779  .00131606  00000+0  65929-3 0  9992
2 68078  53.1580 141.7839 0001619  92.4832 267.6376 15.80902575  3755
STARLINK-37063          
1 68079U 26042L   26079.24712748  .00199915  00000+0  99047-3 0  9998
2 68079  53.1578 141.7889 0001478  94.4863 265.6328 15.80931258  3752
STARLINK-37051          
1 68080U 26042M   26079.24487754  .00244202  00000+0  12015-2 0  9995
2 68080  53.1578 141.7738 0001365 102.5035 257.6141 15.80955504  3758
STARLINK-37066          
1 68081U 26042N   26079.24562895  .00135222  00000+0  67681-3 0  9997
2 68081  53.1581 141.7794 0001485  90.5559 269.5634 15.80909654  3759
STARLINK-37054          
1 68082U 26042P   26079.18090878  .00334869  00000+0  16241-2 0  9991
2 68082  53.1579 142.0862 0001357 103.9651 256.1523 15.81021841  3749
STARLINK-37065          
1 68083U 26042Q   26079.16668981  .00006811  00000+0  48569-4 0  9999
2 68083  53.1592 142.1889 0001548  92.3648 170.2263 15.75238484  3736
STARLINK-37037          
1 68084U 26042R   26079.24262839  .00116492  00000+0  58511-3 0  9995
2 68084  53.1580 141.7584 0001321  89.7958 270.3216 15.80899049  3752
STARLINK-37068          
1 68085U 26042S   26079.24187679  .00115206  00000+0  57867-3 0  9999
2 68085  53.1580 141.7538 0001321 101.6637 258.4534 15.80902899  3758
STARLINK-37067          
1 68086U 26042T   26079.24112620  .00266147  00000+0  13056-2 0  9996
2 68086  53.1581 141.7485 0001432   5.7780 354.3259 15.80960399  3756
STARLINK-37062          
1 68087U 26042U   26079.16668981  .00003921  00000+0  23400-4 0  9999
2 68087  53.1586 142.1122 0001242  82.9598 217.5526 15.80870406  3732
STARLINK-37059          
1 68088U 26042V   26079.16668981 -.00018741  00000+0 -91566-4 0  9996
2 68088  53.1585 142.1035 0001117  89.5415 215.2307 15.80883876  3734
STARLINK-37004          
1 68089U 26042W   26079.16668981  .00021174  00000+0  11063-3 0  9992
2 68089  53.1587 142.0949 0001196  84.1852 224.8635 15.80858438  3739
