[{"OBJECT_NAME":"STARLINK-37045","OBJECT_ID":"2026-042F","EPOCH":"2026-03-20T04:29:08.688768","MEAN_MOTION":15.80965458,"ECCENTRICITY":0.00015647,"INCLINATION":53.1577,"RA_OF_ASC_NODE":142.1262,"ARG_OF_PERICENTER":102.8454,"MEAN_ANOMALY":257.2744,"EPHEMERIS_TYPE":0,"CLASSIFICATION_TYPE":"U","NORAD_CAT_ID":68074,"ELEMENT_SET_NO":999,"REV_AT_EPOCH":374,"BSTAR":0.0010824186,"MEAN_MOTION_DOT":0.00219384,"MEAN_MOTION_DDOT":0},{"OBJECT_NAME":"STARLINK-37026","OBJECT_ID":"2026-042G","EPOCH":"2026-03-20T04:00:01.999584","MEAN_MOTION":15.75250123,"ECCENTRICITY":0.00011289,"INCLINATION":53.1583,"RA_OF_ASC_NODE":142.3034,"ARG_OF_PERICENTER":85.9296,"MEAN_ANOMALY":121.4615,"EPHEMERIS_TYPE":0,"CLASSIFICATION_TYPE":"U","NORAD_CAT_ID":68075,"ELEMENT_SET_NO":999,"REV_AT_EPOCH":373,"BSTAR":-0.00035552463,"MEAN_MOTION_DOT":-0.00054811,"MEAN_MOTION_DDOT":0},{"OBJECT_NAME":"STARLINK-37023","OBJECT_ID":"2026-042H","EPOCH":"2026-03-20T04:00:01.999584","MEAN_MOTION":15.75226744,"ECCENTRICITY":8.746e-5,"INCLINATION":53.159,"RA_OF_ASC_NODE":142.2426,"ARG_OF_PERICENTER":98.6659,"MEAN_ANOMALY":138.1838,"EPHEMERIS_TYPE":0,"CLASSIFICATION_TYPE":"U","NORAD_CAT_ID":68076,"ELEMENT_SET_NO":999,"REV_AT_EPOCH":373,"BSTAR":5.2113546e-5,"MEAN_MOTION_DOT":7.352e-5,"MEAN_MOTION_DDOT":0},{"OBJECT_NAME":"STARLINK-37036","OBJECT_ID":"2026-042J","EPOCH":"2026-03-20T04:00:01.999584","MEAN_MOTION":15.75316311,"ECCENTRICITY":0.00015807,"INCLINATION":53.1587,"RA_OF_ASC_NODE":142.2461,"ARG_OF_PERICENTER":83.4153,"MEAN_ANOMALY":151.5419,"EPHEMERIS_TYPE":0,"CLASSIFICATION_TYPE":"U","NORAD_CAT_ID":68077,"ELEMENT_SET_NO":999,"REV_AT_EPOCH":373,"BSTAR":-0.0010297476,"MEAN_MOTION_DOT":-0.00156146,"MEAN_MOTION_DDOT":0},{"OBJECT_NAME":"STARLINK-36973","OBJECT_ID":"2026-042K","EPOCH":"2026-03-20T05:54:47.041056","MEAN_MOTION":15.80902575,"ECCENTRICITY":0.00016197,"INCLINATION":53.158,"RA_OF_ASC_NODE":141.7839,"ARG_OF_PERICENTER":92.4832,"MEAN_ANOMALY":267.6376,"EPHEMERIS_TYPE":0,"CLASSIFICATION_TYPE":"U","NORAD_CAT_ID":68078,"ELEMENT_SET_NO":999,"REV_AT_EPOCH":375,"BSTAR":0.00065929158,"MEAN_MOTION_DOT":0.00131606,"MEAN_MOTION_DDOT":0},{"OBJECT_NAME":"STARLINK-37063","OBJECT_ID":"2026-042L","EPOCH":"2026-03-20T05:55:51.814272","MEAN_MOTION":15.80931258,"ECCENTRICITY":0.00014786,"INCLINATION":53.1578,"RA_OF_ASC_NODE":141.7889,"ARG_OF_PERICENTER":94.4863,"MEAN_ANOMALY":265.6328,"EPHEMERIS_TYPE":0,"CLASSIFICATION_TYPE":"U","NORAD_CAT_ID":68079,"ELEMENT_SET_NO":999,"REV_AT_EPOCH":375,"BSTAR":0.00099046867,"MEAN_MOTION_DOT":0.00199915,"MEAN_MOTION_DDOT":0},{"OBJECT_NAME":"STARLINK-37051","OBJECT_ID":"2026-042M","EPOCH":"2026-03-20T05:52:37.419456","MEAN_MOTION":15.80955504,"ECCENTRICITY":0.00013654,"INCLINATION":53.1578,"RA_OF_ASC_NODE":141.7738,"ARG_OF_PERICENTER":102.5035,"MEAN_ANOMALY":257.6141,"EPHEMERIS_TYPE":0,"CLASSIFICATION_TYPE":"U","NORAD_CAT_ID":68080,"ELEMENT_SET_NO":999,"REV_AT_EPOCH":375,"BSTAR":0.0012015485,"MEAN_MOTION_DOT":0.00244202,"MEAN_MOTION_DDOT":0},{"OBJECT_NAME":"STARLINK-37066","OBJECT_ID":"2026-042N","EPOCH":"2026-03-20T05:53:42.341280","MEAN_MOTION":15.80909654,"ECCENTRICITY":0.00014859,"INCLINATION":53.1581,"RA_OF_ASC_NODE":141.7794,"ARG_OF_PERICENTER":90.5559,"MEAN_ANOMALY":269.5634,"EPHEMERIS_TYPE":0,"CLASSIFICATION_TYPE":"U","NORAD_CAT_ID":68081,"ELEMENT_SET_NO":999,"REV_AT_EPOCH":375,"BSTAR":0.00067681279,"MEAN_MOTION_DOT":0.00135222,"MEAN_MOTION_DDOT":0},{"OBJECT_NAME":"STARLINK-37054","OBJECT_ID":"2026-042P","EPOCH":"2026-03-20T04:20:30.518592","MEAN_MOTION":15.81021841,"ECCENTRICITY":0.00013572,"INCLINATION":53.1579,"RA_OF_ASC_NODE":142.0862,"ARG_OF_PERICENTER":103.9651,"MEAN_ANOMALY":256.1523,"EPHEMERIS_TYPE":0,"CLASSIFICATION_TYPE":"U","NORAD_CAT_ID":68082,"ELEMENT_SET_NO":999,"REV_AT_EPOCH":374,"BSTAR":0.001624052,"MEAN_MOTION_DOT":0.00334869,"MEAN_MOTION_DDOT":0},{"OBJECT_NAME":"STARLINK-37065","OBJECT_ID":"2026-042Q","EPOCH":"2026-03-20T04:00:01.999584","MEAN_MOTION":15.75238484,"ECCENTRICITY":0.00015483,"INCLINATION":53.1592,"RA_OF_ASC_NODE":142.1889,"ARG_OF_PERICENTER":92.3648,"MEAN_ANOMALY":170.2263,"EPHEMERIS_TYPE":0,"CLASSIFICATION_TYPE":"U","NORAD_CAT_ID":68083,"ELEMENT_SET_NO":999,"REV_AT_EPOCH":373,"BSTAR":4.8569087e-5,"MEAN_MOTION_DOT":6.811e-5,"MEAN_MOTION_DDOT":0},{"OBJECT_NAME":"STARLINK-37037","OBJECT_ID":"2026-042R","EPOCH":"2026-03-20T05:49:23.092896","MEAN_MOTION":15.80899049,"ECCENTRICITY":0.00013218,"INCLINATION":53.158,"RA_OF_ASC_NODE":141.7584,"ARG_OF_PERICENTER":89.7958,"MEAN_ANOMALY":270.3216,"EPHEMERIS_TYPE":0,"CLASSIFICATION_TYPE":"U","NORAD_CAT_ID":68084,"ELEMENT_SET_NO":999,"REV_AT_EPOCH":375,"BSTAR":0.00058510815,"MEAN_MOTION_DOT":0.00116492,"MEAN_MOTION_DDOT":0},{"OBJECT_NAME":"STARLINK-37068","OBJECT_ID":"2026-042S","EPOCH":"2026-03-20T05:48:18.154656","MEAN_MOTION":15.80902899,"ECCENTRICITY":0.00013213,"INCLINATION":53.158,"RA_OF_ASC_NODE":141.7538,"ARG_OF_PERICENTER":101.6637,"MEAN_ANOMALY":258.4534,"EPHEMERIS_TYPE":0,"CLASSIFICATION_TYPE":"U","NORAD_CAT_ID":68085,"ELEMENT_SET_NO":999,"REV_AT_EPOCH":375,"BSTAR":0.00057867015,"MEAN_MOTION_DOT":0.00115206,"MEAN_MOTION_DDOT":0},{"OBJECT_NAME":"STARLINK-37067","OBJECT_ID":"2026-042T","EPOCH":"2026-03-20T05:47:13.303680","MEAN_MOTION":15.80960399,"ECCENTRICITY":0.00014326,"INCLINATION":53.1581,"RA_OF_ASC_NODE":141.7485,"ARG_OF_PERICENTER":5.778,"MEAN_ANOMALY":354.3259,"EPHEMERIS_TYPE":0,"CLASSIFICATION_TYPE":"U","NORAD_CAT_ID":68086,"ELEMENT_SET_NO":999,"REV_AT_EPOCH":375,"BSTAR":0.0013055681,"MEAN_MOTION_DOT":0.00266147,"MEAN_MOTION_DDOT":0},{"OBJECT_NAME":"STARLINK-37062","OBJECT_ID":"2026-042U","EPOCH":"2026-03-20T04:00:01.999584","MEAN_MOTION":15.80870406,"ECCENTRICITY":0.00012428,"INCLINATION":53.1586,"RA_OF_ASC_NODE":142.1122,"ARG_OF_PERICENTER":82.9598,"MEAN_ANOMALY":217.5526,"EPHEMERIS_TYPE":0,"CLASSIFICATION_TYPE":"U","NORAD_CAT_ID":68087,"ELEMENT_SET_NO":999,"REV_AT_EPOCH":373,"BSTAR":2.3399831e-5,"MEAN_MOTION_DOT":3.921e-5,"MEAN_MOTION_DDOT":0},{"OBJECT_NAME":"STARLINK-37059","OBJECT_ID":"2026-042V","EPOCH":"2026-03-20T04:00:01.999584","MEAN_MOTION":15.80883876,"ECCENTRICITY":0.00011177,"INCLINATION":53.1585,"RA_OF_ASC_NODE":142.1035,"ARG_OF_PERICENTER":89.5415,"MEAN_ANOMALY":215.2307,"EPHEMERIS_TYPE":0,"CLASSIFICATION_TYPE":"U","NORAD_CAT_ID":68088,"ELEMENT_SET_NO":999,"REV_AT_EPOCH":373,"BSTAR":-9.1566152e-5,"MEAN_MOTION_DOT":-0.00018741,"MEAN_MOTION_DDOT":0},{"OBJECT_NAME":"STARLINK-37004","OBJECT_ID":"2026-042W","EPOCH":"2026-03-20T04:00:01.999584","MEAN_MOTION":15.80858438,"ECCENTRICITY":0.00011963,"INCLINATION":53.1587,"RA_OF_ASC_NODE":142.0949,"ARG_OF_PERICENTER":84.1852,"MEAN_ANOMALY":224.8635,"EPHEMERIS_TYPE":0,"CLASSIFICATION_TYPE":"U","NORAD_CAT_ID":68089,"ELEMENT_SET_NO":999,"REV_AT_EPOCH":373,"BSTAR":0.00011062924,"MEAN_MOTION_DOT":0.00021174,"MEAN_MOTION_DDOT":0}]
